NORAD_CAT_ID,OBJECT_NAME,OBJECT_TYPE,EPOCH,MEAN_MOTION,ECCENTRICITY,INCLINATION,RA_OF_ASC_NODE,ARG_OF_PERICENTER,MEAN_ANOMALY,BSTAR,MEAN_MOTION_DOT,MEAN_MOTION_DDOT,TLE_LINE0,TLE_LINE1,TLE_LINE2,SEMIMAJOR_AXIS,PERIOD,APOGEE,PERIGEE,DECAYED
52344.0,STARLINK-3851,PAYLOAD,2022-12-10 12:58:54,15.08833294,0.0002548,53.2186,119.4647,53.4287,306.6939,2.0704e-05,4.1e-07,0.0,0 STARLINK-3851,1 52344U 22045P   22344.54090808  .00000041  00000-0  20704-4 0  9992,2 52344  53.2186 119.4647 0002548  53.4287 306.6939 15.08833294 36867,6917.901,95.438,541.529,538.003,0.0
52344.0,STARLINK-3851,PAYLOAD,2022-12-10 14:34:17,15.08834383,0.000257,53.2183,119.1672,53.809,306.314,3.2408e-05,2.27e-06,0.0,0 STARLINK-3851,1 52344U 22045P   22344.60714757  .00000227  00000-0  32408-4 0  9995,2 52344  53.2183 119.1672 0002570  53.8090 306.3140 15.08834383 36872,6917.898,95.438,541.54,537.985,0.0
52344.0,STARLINK-3851,PAYLOAD,2022-12-10 16:09:40,15.08840446,0.0002578,53.2182,118.8679,51.3666,308.7557,6.8285e-05,7.99e-06,0.0,0 STARLINK-3851,1 52344U 22045P   22344.67338291  .00000799  00000-0  68285-4 0  9993,2 52344  53.2182 118.8679 0002578  51.3666 308.7557 15.08840446 36880,6917.879,95.438,541.5269999999998,537.961,0.0
52344.0,STARLINK-3851,PAYLOAD,2022-12-11 12:49:41,15.08833468,0.0002502,53.2189,115.005,55.6641,304.4588,0.00020103,2.912e-05,0.0,0 STARLINK-3851,1 52344U 22045P   22345.53450450  .00002912  00000-0  20103-3 0  9996,2 52344  53.2189 115.0050 0002502  55.6641 304.4588 15.08833468 37015,6917.9,95.438,541.496,538.034,0.0
52344.0,STARLINK-3851,PAYLOAD,2022-12-11 17:35:50,15.08848803,0.0002329,53.2172,114.1111,34.4209,325.6934,1.8189e-05,1e-08,0.0,0 STARLINK-3851,1 52344U 22045P   22345.73321923  .00000001  00000-0  18189-4 0  9999,2 52344  53.2172 114.1111 0002329  34.4209 325.6934 15.08848803 37049,6917.853,95.437,541.33,538.107,0.0
52344.0,STARLINK-3851,PAYLOAD,2022-12-12 12:40:28,15.08846479,0.0002589,53.2189,110.5421,59.0147,301.11,2.8548e-05,1.66e-06,0.0,0 STARLINK-3851,1 52344U 22045P   22346.52810439  .00000166  00000-0  28548-4 0  9994,2 52344  53.2189 110.5421 0002589  59.0147 301.1100 15.08846479 37167,6917.861,95.437,541.5169999999998,537.935,0.0
52344.0,STARLINK-3851,PAYLOAD,2022-12-13 09:20:29,15.08844075,0.0002478,53.2187,106.6763,51.0705,309.0508,4.7361e-05,4.66e-06,0.0,0 STARLINK-3851,1 52344U 22045P   22347.38922490  .00000466  00000-0  47361-4 0  9997,2 52344  53.2187 106.6763 0002478  51.0705 309.0508 15.08844075 37292,6917.868,95.437,541.447,538.019,0.0
52344.0,STARLINK-3851,PAYLOAD,2022-12-13 17:17:24,15.08840418,0.0002439,53.2182,105.1895,50.1996,309.921,1.2427e-05,-9.1e-07,0.0,0 STARLINK-3851,1 52344U 22045P   22347.72042757 -.00000091  00000-0  12427-4 0  9994,2 52344  53.2182 105.1895 0002439  50.1996 309.9210 15.08840418 37348,6917.879,95.438,541.431,538.057,0.0
52344.0,STARLINK-3851,PAYLOAD,2022-12-14 13:57:26,15.088332199999998,0.00026,53.2158,101.3209,59.8507,300.2742,-5.7824e-05,-1.209e-05,0.0,0 STARLINK-3851,1 52344U 22045P   22348.58155791 -.00001209  00000-0 -57824-4 0  9995,2 52344  53.2158 101.3209 0002600  59.8507 300.2742 15.08833220 37473,6917.901,95.438,541.565,537.967,0.0
52344.0,STARLINK-3851,PAYLOAD,2022-12-15 07:26:40,15.08839256,0.0002157,53.2178,98.0517,44.8934,315.2233,6.930800000000001e-05,8.15e-06,0.0,0 STARLINK-3851,1 52344U 22045P   22349.31019376  .00000815  00000-0  69308-4 0  9995,2 52344  53.2178  98.0517 0002157  44.8934 315.2233 15.08839256 37582,6917.8830000000025,95.438,541.24,538.255,0.0
52344.0,STARLINK-3851,PAYLOAD,2022-12-15 13:48:14,15.0881027,0.0002973,53.2175,96.8624,72.9845,287.1473,0.00047749,7.313e-05,0.0,0 STARLINK-3851,1 52344U 22045P   22349.57516560  .00007313  00000-0  47749-3 0  9994,2 52344  53.2175  96.8624 0002973  72.9845 287.1473 15.08810270 37626,6917.971,95.439,541.893,537.78,0.0
52344.0,STARLINK-3851,PAYLOAD,2022-12-15 18:34:22,15.08842912,0.0002173,53.2177,95.9705,46.8474,313.27,0.00015517,2.182e-05,0.0,0 STARLINK-3851,1 52344U 22045P   22349.77387204  .00002182  00000-0  15517-3 0  9994,2 52344  53.2177  95.9705 0002173  46.8474 313.2700 15.08842912 37653,6917.871,95.437,541.24,538.2330000000002,0.0
52344.0,STARLINK-3851,PAYLOAD,2022-12-16 00:55:55,15.08840818,0.0002179,53.2169,94.7812,36.6054,323.5087,0.00033202,5e-05,0.0,0 STARLINK-3851,1 52344U 22045P   22350.03883739  .00005000  00000-0  33202-3 0  9992,2 52344  53.2169  94.7812 0002179  36.6054 323.5087 15.08840818 37696,6917.878000000002,95.438,541.25,538.235,0.0
52344.0,STARLINK-3851,PAYLOAD,2022-12-16 13:38:59,15.08853095,0.0002265,53.2168,92.403,34.0518,326.0619,0.0004151,6.327e-05,0.0,0 STARLINK-3851,1 52344U 22045P   22350.56874984  .00006327  00000-0  41510-3 0  9996,2 52344  53.2168  92.4030 0002265  34.0518 326.0619 15.08853095 37774,6917.84,95.437,541.2719999999998,538.138,0.0
52344.0,STARLINK-3851,PAYLOAD,2022-12-16 18:25:09,15.08844938,0.0002216,53.2165,91.5104,33.7282,326.3851,0.00016052,2.268e-05,0.0,0 STARLINK-3851,1 52344U 22045P   22350.76747274  .00002268  00000-0  16052-3 0  9992,2 52344  53.2165  91.5104 0002216  33.7282 326.3851 15.08844938 37804,6917.865,95.437,541.263,538.197,0.0
52344.0,STARLINK-3851,PAYLOAD,2022-12-17 10:19:01,15.08832738,0.0002289,53.2167,88.5367,35.579,324.5354,-5.3897e-05,-1.146e-05,0.0,0 STARLINK-3851,1 52344U 22045P   22351.42987885 -.00001146  00000-0 -53897-4 0  9995,2 52344  53.2167  88.5367 0002289  35.5790 324.5354 15.08832738 37901,6917.903,95.438,541.351,538.184,0.0
52344.0,STARLINK-3851,PAYLOAD,2022-12-17 13:29:47,15.08830411,0.0002308,53.2169,87.9422,33.109,327.0047,-0.00011128,-2.059e-05,0.0,0 STARLINK-3851,1 52344U 22045P   22351.56235838 -.00002059  00000-0 -11128-3 0  9998,2 52344  53.2169  87.9422 0002308  33.1090 327.0047 15.08830411 37922,6917.91,95.438,541.371,538.178,0.0
52344.0,STARLINK-3851,PAYLOAD,2022-12-17 18:15:57,15.08832362,0.0002231,53.2178,87.0503,31.7075,328.4051,-4.4343e-06,-3.59e-06,0.0,0 STARLINK-3851,1 52344U 22045P   22351.76108237 -.00000359  00000-0 -44343-5 0  9990,2 52344  53.2178  87.0503 0002231  31.7075 328.4051 15.08832362 37955,6917.904,95.438,541.312,538.225,0.0
52344.0,STARLINK-3851,PAYLOAD,2022-12-18 13:20:35,15.08837295,0.0002317,53.2181,83.4832,35.7473,324.3674,-4.2527e-05,-9.65e-06,0.0,0 STARLINK-3851,1 52344U 22045P   22352.55596128 -.00000965  00000-0 -42527-4 0  9992,2 52344  53.2181  83.4832 0002317  35.7473 324.3674 15.08837295 38075,6917.889,95.438,541.357,538.151,0.0
52344.0,STARLINK-3851,PAYLOAD,2022-12-18 18:06:44,15.0883674,0.0002314,53.2176,82.5907,27.8723,332.2393,-6.033600000000001e-05,-1.248e-05,0.0,0 STARLINK-3851,1 52344U 22045P   22352.75468272 -.00001248  00000-0 -60336-4 0  9995,2 52344  53.2176  82.5907 0002314  27.8723 332.2393 15.08836740 38103,6917.89,95.438,541.356,538.155,0.0
52344.0,STARLINK-3851,PAYLOAD,2022-12-18 22:52:54,15.08823598,0.0002346,53.2176,81.6983,30.1528,329.9599,-5.5384e-05,-1.169e-05,0.0,0 STARLINK-3851,1 52344U 22045P   22352.95341237 -.00001169  00000-0 -55384-4 0  9997,2 52344  53.2176  81.6983 0002346  30.1528 329.9599 15.08823598 38133,6917.931,95.439,541.418,538.173,0.0
52344.0,STARLINK-3851,PAYLOAD,2022-12-19 08:25:13,15.08828889,0.0002216,53.2179,79.9139,27.0242,333.0866,0.00011352,1.518e-05,0.0,0 STARLINK-3851,1 52344U 22045P   22353.35084715  .00001518  00000-0  11352-3 0  9999,2 52344  53.2179  79.9139 0002216  27.0242 333.0866 15.08828889 38190,6917.9140000000025,95.438,541.312,538.246,0.0
52344.0,STARLINK-3851,PAYLOAD,2022-12-19 14:46:45,15.08840291,0.0002323,53.2179,78.7248,29.2583,330.8539,0.00021218,3.09e-05,0.0,0 STARLINK-3851,1 52344U 22045P   22353.61579978  .00003090  00000-0  21218-3 0  9997,2 52344  53.2179  78.7248 0002323  29.2583 330.8539 15.08840291 38237,6917.879,95.438,541.352,538.137,0.0
52344.0,STARLINK-3851,PAYLOAD,2022-12-19 22:43:39,15.08853705,0.0002321,53.2179,77.238,29.7518,330.3606,0.0002822,4.208e-05,0.0,0 STARLINK-3851,1 52344U 22045P   22353.94698927  .00004208  00000-0  28220-3 0  9991,2 52344  53.2179  77.2380 0002321  29.7518 330.3606 15.08853705 38288,6917.8380000000025,95.437,541.309,538.0980000000002,0.0
52344.0,STARLINK-3851,PAYLOAD,2022-12-20 11:26:45,15.08857552,0.0002339,53.2173,74.8585,28.1991,331.9127,0.00034209,5.163e-05,0.0,0 STARLINK-3851,1 52344U 22045P   22354.47691113  .00005163  00000-0  34209-3 0  9995,2 52344  53.2173  74.8585 0002339  28.1991 331.9127 15.08857552 38367,6917.8269999999975,95.436,541.31,538.0740000000002,0.0
52344.0,STARLINK-3851,PAYLOAD,2022-12-21 04:56:00,15.08843098,0.0002686,53.2173,71.5876,29.5271,330.5872,3.8923e-05,3.31e-06,0.0,0 STARLINK-3851,1 52344U 22045P   22355.20555735  .00000331  00000-0  38923-4 0  9996,2 52344  53.2173  71.5876 0002686  29.5271 330.5872 15.08843098 38479,6917.871,95.437,541.594,537.878,0.0
52344.0,STARLINK-3851,PAYLOAD,2022-12-21 11:17:32,15.08831009,0.0002023,53.2172,70.3975,26.2729,333.8365,-0.00032296,-5.423e-05,0.0,0 STARLINK-3851,1 52344U 22045P   22355.47051880 -.00005423  00000-0 -32296-3 0  9992,2 52344  53.2172  70.3975 0002023  26.2729 333.8365 15.08831009 38519,6917.908,95.438,541.172,538.373,0.0
52344.0,STARLINK-3851,PAYLOAD,2022-12-21 14:28:19,15.08827017,0.0002029,53.2172,69.803,25.9055,334.2038,-0.00032897,-5.518e-05,0.0,0 STARLINK-3851,1 52344U 22045P   22355.60300120 -.00005518  00000-0 -32897-3 0  9993,2 52344  53.2172  69.8030 0002029  25.9055 334.2038 15.08827017 38536,6917.92,95.438,541.189,538.381,0.0
52344.0,STARLINK-3851,PAYLOAD,2022-12-22 11:08:20,15.08837103,0.0002389,53.2175,65.9381,25.9673,334.1438,0.0003458,5.219e-05,0.0,0 STARLINK-3851,1 52344U 22045P   22356.46412794  .00005219  00000-0  34580-3 0  9996,2 52344  53.2175  65.9381 0002389  25.9673 334.1438 15.08837103 38664,6917.889,95.438,541.4069999999998,538.102,0.0
